[
  {
    "OBJECT_NAME": "STARLINK-35190",
    "OBJECT_ID": "25211M",
    "EPOCH": "2025-11-11T03:11:20.311872",
    "MEAN_MOTION": 15.05665141,
    "ECCENTRICITY": 0.0001549,
    "INCLINATION": 97.6054,
    "RA_OF_ASC_NODE": 357.2171,
    "ARG_OF_PERICENTER": 91.9979,
    "MEAN_ANOMALY": 268.1425,
    "EPHEMERIS_TYPE": 0,
    "CLASSIFICATION_TYPE": "U",
    "NORAD_CAT_ID": 65663,
    "ELEMENT_SET_NO": 999,
    "REV_AT_EPOCH": 920,
    "BSTAR": 0.0005482200000000001,
    "MEAN_MOTION_DOT": 7.861e-05,
    "MEAN_MOTION_DDOT": 0.0,
    "TLE_LINE1": "1 65663U 25211M   25315.13287398  .00007861  00000+0  54822-3 0  9999",
    "TLE_LINE2": "2 65663  97.6054 357.2171 0001549  91.9979 268.1425 15.05665141  9201",
    "COMMENT": "Grouped by shell and plane from TLE"
  },
  {
    "OBJECT_NAME": "STARLINK-35201",
    "OBJECT_ID": "25211N",
    "EPOCH": "2025-11-11T03:07:21.314784",
    "MEAN_MOTION": 15.05658056,
    "ECCENTRICITY": 0.0001151,
    "INCLINATION": 97.6055,
    "RA_OF_ASC_NODE": 357.2205,
    "ARG_OF_PERICENTER": 96.3184,
    "MEAN_ANOMALY": 263.8174,
    "EPHEMERIS_TYPE": 0,
    "CLASSIFICATION_TYPE": "U",
    "NORAD_CAT_ID": 65664,
    "ELEMENT_SET_NO": 999,
    "REV_AT_EPOCH": 920,
    "BSTAR": 0.00044293,
    "MEAN_MOTION_DOT": 6.337e-05,
    "MEAN_MOTION_DDOT": 0.0,
    "TLE_LINE1": "1 65664U 25211N   25315.13010781  .00006337  00000+0  44293-3 0  9998",
    "TLE_LINE2": "2 65664  97.6055 357.2205 0001151  96.3184 263.8174 15.05658056  9207",
    "COMMENT": "Grouped by shell and plane from TLE"
  },
  {
    "OBJECT_NAME": "STARLINK-35115",
    "OBJECT_ID": "25211P",
    "EPOCH": "2025-11-11T03:03:22.041216",
    "MEAN_MOTION": 15.05662488,
    "ECCENTRICITY": 0.00013,
    "INCLINATION": 97.6052,
    "RA_OF_ASC_NODE": 357.2248,
    "ARG_OF_PERICENTER": 97.9483,
    "MEAN_ANOMALY": 262.1892,
    "EPHEMERIS_TYPE": 0,
    "CLASSIFICATION_TYPE": "U",
    "NORAD_CAT_ID": 65665,
    "ELEMENT_SET_NO": 999,
    "REV_AT_EPOCH": 920,
    "BSTAR": 0.00050657,
    "MEAN_MOTION_DOT": 7.258e-05,
    "MEAN_MOTION_DDOT": 0.0,
    "TLE_LINE1": "1 65665U 25211P   25315.12733844  .00007258  00000+0  50657-3 0  9994",
    "TLE_LINE2": "2 65665  97.6052 357.2248 0001300  97.9483 262.1892 15.05662488  9200",
    "COMMENT": "Grouped by shell and plane from TLE"
  },
  {
    "OBJECT_NAME": "STARLINK-35181",
    "OBJECT_ID": "25211Q",
    "EPOCH": "2025-11-11T02:59:23.167680",
    "MEAN_MOTION": 15.05668157,
    "ECCENTRICITY": 0.0001998,
    "INCLINATION": 97.6056,
    "RA_OF_ASC_NODE": 357.2288,
    "ARG_OF_PERICENTER": 113.8135,
    "MEAN_ANOMALY": 246.3302,
    "EPHEMERIS_TYPE": 0,
    "CLASSIFICATION_TYPE": "U",
    "NORAD_CAT_ID": 65666,
    "ELEMENT_SET_NO": 999,
    "REV_AT_EPOCH": 920,
    "BSTAR": 0.00035035,
    "MEAN_MOTION_DOT": 5e-05,
    "MEAN_MOTION_DDOT": 0.0,
    "TLE_LINE1": "1 65666U 25211Q   25315.12457370  .00005000  00000+0  35035-3 0  9998",
    "TLE_LINE2": "2 65666  97.6056 357.2288 0001998 113.8135 246.3302 15.05668157  9203",
    "COMMENT": "Grouped by shell and plane from TLE"
  },
  {
    "OBJECT_NAME": "STARLINK-35361",
    "OBJECT_ID": "25211R",
    "EPOCH": "2025-11-11T02:55:23.748096",
    "MEAN_MOTION": 15.05658418,
    "ECCENTRICITY": 0.0002346,
    "INCLINATION": 97.6051,
    "RA_OF_ASC_NODE": 357.2325,
    "ARG_OF_PERICENTER": 127.0035,
    "MEAN_ANOMALY": 233.1407,
    "EPHEMERIS_TYPE": 0,
    "CLASSIFICATION_TYPE": "U",
    "NORAD_CAT_ID": 65667,
    "ELEMENT_SET_NO": 999,
    "REV_AT_EPOCH": 920,
    "BSTAR": 0.00043892,
    "MEAN_MOTION_DOT": 6.28e-05,
    "MEAN_MOTION_DDOT": 0.0,
    "TLE_LINE1": "1 65667U 25211R   25315.12180264  .00006280  00000+0  43892-3 0  9995",
    "TLE_LINE2": "2 65667  97.6051 357.2325 0002346 127.0035 233.1407 15.05658418  9204",
    "COMMENT": "Grouped by shell and plane from TLE"
  },
  {
    "OBJECT_NAME": "STARLINK-35351",
    "OBJECT_ID": "25211S",
    "EPOCH": "2025-11-11T02:51:24.653376",
    "MEAN_MOTION": 15.05655813,
    "ECCENTRICITY": 0.0001442,
    "INCLINATION": 97.6047,
    "RA_OF_ASC_NODE": 357.2356,
    "ARG_OF_PERICENTER": 94.2517,
    "MEAN_ANOMALY": 265.8875,
    "EPHEMERIS_TYPE": 0,
    "CLASSIFICATION_TYPE": "U",
    "NORAD_CAT_ID": 65668,
    "ELEMENT_SET_NO": 999,
    "REV_AT_EPOCH": 920,
    "BSTAR": 0.00034492,
    "MEAN_MOTION_DOT": 4.92e-05,
    "MEAN_MOTION_DDOT": 0.0,
    "TLE_LINE1": "1 65668U 25211S   25315.11903534  .00004920  00000+0  34492-3 0  9993",
    "TLE_LINE2": "2 65668  97.6047 357.2356 0001442  94.2517 265.8875 15.05655813  9207",
    "COMMENT": "Grouped by shell and plane from TLE"
  },
  {
    "OBJECT_NAME": "STARLINK-35353",
    "OBJECT_ID": "25211T",
    "EPOCH": "2025-11-11T02:47:25.105056",
    "MEAN_MOTION": 15.05654297,
    "ECCENTRICITY": 0.0002289,
    "INCLINATION": 97.6036,
    "RA_OF_ASC_NODE": 357.2397,
    "ARG_OF_PERICENTER": 90.1075,
    "MEAN_ANOMALY": 270.0415,
    "EPHEMERIS_TYPE": 0,
    "CLASSIFICATION_TYPE": "U",
    "NORAD_CAT_ID": 65669,
    "ELEMENT_SET_NO": 999,
    "REV_AT_EPOCH": 920,
    "BSTAR": 0.00025203,
    "MEAN_MOTION_DOT": 3.578e-05,
    "MEAN_MOTION_DDOT": 0.0,
    "TLE_LINE1": "1 65669U 25211T   25315.11626279  .00003578  00000+0  25203-3 0  9990",
    "TLE_LINE2": "2 65669  97.6036 357.2397 0002289  90.1075 270.0415 15.05654297  9208",
    "COMMENT": "Grouped by shell and plane from TLE"
  },
  {
    "OBJECT_NAME": "STARLINK-35359",
    "OBJECT_ID": "25211U",
    "EPOCH": "2025-11-11T02:43:27.519744",
    "MEAN_MOTION": 15.05604858,
    "ECCENTRICITY": 0.0001658,
    "INCLINATION": 97.6046,
    "RA_OF_ASC_NODE": 357.2441,
    "ARG_OF_PERICENTER": 75.2245,
    "MEAN_ANOMALY": 284.9166,
    "EPHEMERIS_TYPE": 0,
    "CLASSIFICATION_TYPE": "U",
    "NORAD_CAT_ID": 65670,
    "ELEMENT_SET_NO": 999,
    "REV_AT_EPOCH": 920,
    "BSTAR": 0.0,
    "MEAN_MOTION_DOT": -0.00012181,
    "MEAN_MOTION_DDOT": 0.0,
    "TLE_LINE1": "1 65670U 25211U   25315.11351296 -.00012181  00000+0 -84240-3 0  9994",
    "TLE_LINE2": "2 65670  97.6046 357.2441 0001658  75.2245 284.9166 15.05604858  9208",
    "COMMENT": "Grouped by shell and plane from TLE"
  },
  {
    "OBJECT_NAME": "STARLINK-35194",
    "OBJECT_ID": "25211V",
    "EPOCH": "2025-11-11T02:35:27.736224",
    "MEAN_MOTION": 15.05658506,
    "ECCENTRICITY": 0.0001263,
    "INCLINATION": 97.6035,
    "RA_OF_ASC_NODE": 357.2514,
    "ARG_OF_PERICENTER": 92.9269,
    "MEAN_ANOMALY": 267.2102,
    "EPHEMERIS_TYPE": 0,
    "CLASSIFICATION_TYPE": "U",
    "NORAD_CAT_ID": 65671,
    "ELEMENT_SET_NO": 999,
    "REV_AT_EPOCH": 920,
    "BSTAR": 0.0003938,
    "MEAN_MOTION_DOT": 5.627e-05,
    "MEAN_MOTION_DDOT": 0.0,
    "TLE_LINE1": "1 65671U 25211V   25315.10795991  .00005627  00000+0  39380-3 0  9998",
    "TLE_LINE2": "2 65671  97.6035 357.2514 0001263  92.9269 267.2102 15.05658506  9205",
    "COMMENT": "Grouped by shell and plane from TLE"
  },
  {
    "OBJECT_NAME": "STARLINK-35198",
    "OBJECT_ID": "25211W",
    "EPOCH": "2025-11-11T02:39:26.753184",
    "MEAN_MOTION": 15.0566423,
    "ECCENTRICITY": 8.47e-05,
    "INCLINATION": 97.6036,
    "RA_OF_ASC_NODE": 357.2481,
    "ARG_OF_PERICENTER": 100.8521,
    "MEAN_ANOMALY": 259.2801,
    "EPHEMERIS_TYPE": 0,
    "CLASSIFICATION_TYPE": "U",
    "NORAD_CAT_ID": 65672,
    "ELEMENT_SET_NO": 999,
    "REV_AT_EPOCH": 920,
    "BSTAR": 0.00052047,
    "MEAN_MOTION_DOT": 7.46e-05,
    "MEAN_MOTION_DDOT": 0.0,
    "TLE_LINE1": "1 65672U 25211W   25315.11072631  .00007460  00000+0  52047-3 0  9991",
    "TLE_LINE2": "2 65672  97.6036 357.2481 0000847 100.8521 259.2801 15.05664230  9205",
    "COMMENT": "Grouped by shell and plane from TLE"
  },
  {
    "OBJECT_NAME": "STARLINK-35177",
    "OBJECT_ID": "25211X",
    "EPOCH": "2025-11-11T02:27:29.463840",
    "MEAN_MOTION": 15.05672926,
    "ECCENTRICITY": 0.000195,
    "INCLINATION": 97.6033,
    "RA_OF_ASC_NODE": 357.2592,
    "ARG_OF_PERICENTER": 94.074,
    "MEAN_ANOMALY": 266.071,
    "EPHEMERIS_TYPE": 0,
    "CLASSIFICATION_TYPE": "U",
    "NORAD_CAT_ID": 65673,
    "ELEMENT_SET_NO": 999,
    "REV_AT_EPOCH": 920,
    "BSTAR": 0.00047123,
    "MEAN_MOTION_DOT": 6.749e-05,
    "MEAN_MOTION_DDOT": 0.0,
    "TLE_LINE1": "1 65673U 25211X   25315.10242435  .00006749  00000+0  47123-3 0  9990",
    "TLE_LINE2": "2 65673  97.6033 357.2592 0001950  94.0740 266.0710 15.05672926  9205",
    "COMMENT": "Grouped by shell and plane from TLE"
  },
  {
    "OBJECT_NAME": "STARLINK-35254",
    "OBJECT_ID": "25211Y",
    "EPOCH": "2025-11-11T02:23:30.017472",
    "MEAN_MOTION": 15.0565736,
    "ECCENTRICITY": 9.65e-05,
    "INCLINATION": 97.6035,
    "RA_OF_ASC_NODE": 357.2627,
    "ARG_OF_PERICENTER": 71.158,
    "MEAN_ANOMALY": 288.9751,
    "EPHEMERIS_TYPE": 0,
    "CLASSIFICATION_TYPE": "U",
    "NORAD_CAT_ID": 65674,
    "ELEMENT_SET_NO": 999,
    "REV_AT_EPOCH": 920,
    "BSTAR": 0.00035171000000000003,
    "MEAN_MOTION_DOT": 5.019e-05,
    "MEAN_MOTION_DDOT": 0.0,
    "TLE_LINE1": "1 65674U 25211Y   25315.09965298  .00005019  00000+0  35171-3 0  9997",
    "TLE_LINE2": "2 65674  97.6035 357.2627 0000965  71.1580 288.9751 15.05657360  9203",
    "COMMENT": "Grouped by shell and plane from TLE"
  },
  {
    "OBJECT_NAME": "STARLINK-34749",
    "OBJECT_ID": "25211Z",
    "EPOCH": "2025-11-11T07:18:34.563744",
    "MEAN_MOTION": 15.05659338,
    "ECCENTRICITY": 0.0001762,
    "INCLINATION": 97.6034,
    "RA_OF_ASC_NODE": 357.4518,
    "ARG_OF_PERICENTER": 92.6173,
    "MEAN_ANOMALY": 267.5256,
    "EPHEMERIS_TYPE": 0,
    "CLASSIFICATION_TYPE": "U",
    "NORAD_CAT_ID": 65675,
    "ELEMENT_SET_NO": 999,
    "REV_AT_EPOCH": 923,
    "BSTAR": 0.00044767,
    "MEAN_MOTION_DOT": 6.406e-05,
    "MEAN_MOTION_DDOT": 0.0,
    "TLE_LINE1": "1 65675U 25211Z   25315.30456671  .00006406  00000+0  44767-3 0  9994",
    "TLE_LINE2": "2 65675  97.6034 357.4518 0001762  92.6173 267.5256 15.05659338  9239",
    "COMMENT": "Grouped by shell and plane from TLE"
  }
]